NORAD_CAT_ID,OBJECT_NAME,OBJECT_TYPE,EPOCH,MEAN_MOTION,ECCENTRICITY,INCLINATION,RA_OF_ASC_NODE,ARG_OF_PERICENTER,MEAN_ANOMALY,BSTAR,MEAN_MOTION_DOT,MEAN_MOTION_DDOT,TLE_LINE0,TLE_LINE1,TLE_LINE2,SEMIMAJOR_AXIS,PERIOD,APOGEE,PERIGEE,DECAYED
53744.0,STARLINK-4670,PAYLOAD,2024-05-06 10:49:31,15.08881365,0.0001487,53.2193,41.5427,106.488,253.6276,0.0009759,0.00015295,0.0,0 STARLINK-4670,1 53744U 22107AW  24127.45105512  .00015295  00000-0  97590-3 0  9999,2 53744  53.2193  41.5427 0001487 106.4880 253.6276 15.08881365 92331,6917.754,95.435,540.648,538.59,0.0
53744.0,STARLINK-4670,PAYLOAD,2024-05-06 21:57:13,15.08863755,0.000142,53.219,39.4614,101.5027,258.6125,0.00031319,4.703e-05,0.0,0 STARLINK-4670,1 53744U 22107AW  24127.91473536  .00004703  00000-0  31319-3 0  9993,2 53744  53.2190  39.4614 0001420 101.5027 258.6125 15.08863755 93183,6917.808,95.436,540.655,538.69,0.0
53744.0,STARLINK-4670,PAYLOAD,2024-05-07 01:07:58,15.08876165,0.0001369,53.2187,38.8666,100.5759,259.5387,0.00061928,9.591e-05,0.0,0 STARLINK-4670,1 53744U 22107AW  24128.04720835  .00009591  00000-0  61928-3 0  9994,2 53744  53.2187  38.8666 0001369 100.5759 259.5387 15.08876165 92427,6917.77,95.435,540.582,538.688,0.0
53744.0,STARLINK-4670,PAYLOAD,2024-05-07 10:40:17,15.08886817,0.0001382,53.2191,37.0833,96.9814,263.1336,0.0018934,0.00030013,0.0,0 STARLINK-4670,1 53744U 22107AW  24128.44464221  .00030013  00000-0  18934-2 0  9993,2 53744  53.2191  37.0833 0001382  96.9814 263.1336 15.08886817 93267,6917.737,95.435,540.558,538.646,0.0
53744.0,STARLINK-4670,PAYLOAD,2024-05-07 17:01:50,15.08840353,0.0002708,53.2192,35.8949,89.0674,271.0628,0.00099933,0.00015653,0.0,0 STARLINK-4670,1 53744U 22107AW  24128.70961052  .00015653  00000-0  99933-3 0  9998,2 53744  53.2192  35.8949 0002708  89.0674 271.0628 15.08840353 92527,6917.879,95.438,541.618,537.871,0.0
53744.0,STARLINK-4670,PAYLOAD,2024-05-07 21:47:59,15.08820076,0.0001344,53.2186,35.0017,89.7632,270.3514,0.00053462,8.226e-05,0.0,0 STARLINK-4670,1 53744U 22107AW  24128.90833333  .00008226  00000-0  53462-3 0  9995,2 53744  53.2186  35.0017 0001344  89.7632 270.3514 15.08820076 93330,6917.941,95.439,540.736,538.877,0.0
53744.0,STARLINK-4670,PAYLOAD,2024-05-07 23:23:23,15.08817402,0.0001309,53.2183,34.7045,87.3533,272.7609,0.0008168,0.00012727,0.0,0 STARLINK-4670,1 53744U 22107AW  24128.97457452  .00012727  00000-0  81680-3 0  9990,2 53744  53.2183  34.7045 0001309  87.3533 272.7609 15.08817402 92563,6917.949,95.439,540.72,538.909,0.0
53744.0,STARLINK-4670,PAYLOAD,2024-05-08 10:31:05,15.0882767,0.0001398,53.219,32.624,91.7327,268.3825,0.0010517,0.00016484,0.0,0 STARLINK-4670,1 53744U 22107AW  24129.43826028  .00016484  00000-0  10517-2 0  9995,2 53744  53.2190  32.6240 0001398  91.7327 268.3825 15.08827670 93417,6917.918,95.438,540.75,538.816,0.0
53744.0,STARLINK-4670,PAYLOAD,2024-05-08 21:38:47,15.08836468,0.0001429,53.2188,30.5426,94.0013,266.1142,0.00085591,0.00013359,0.0,0 STARLINK-4670,1 53744U 22107AW  24129.90194340  .00013359  00000-0  85591-3 0  9995,2 53744  53.2188  30.5426 0001429  94.0013 266.1142 15.08836468 93480,6917.891,95.438,540.745,538.768,0.0
53744.0,STARLINK-4670,PAYLOAD,2024-05-09 00:49:34,15.08841666,0.0001439,53.2184,29.9471,91.0571,269.0586,0.00092537,0.00014471,0.0,0 STARLINK-4670,1 53744U 22107AW  24130.03442318  .00014471  00000-0  92537-3 0  9996,2 53744  53.2184  29.9471 0001439  91.0571 269.0586 15.08841666 92721,6917.875,95.437,540.736,538.745,0.0
53744.0,STARLINK-4670,PAYLOAD,2024-05-09 10:21:52,15.08859085,0.000147,53.2188,28.1629,90.9428,269.1733,0.0011658,0.00018324,0.0,0 STARLINK-4670,1 53744U 22107AW  24130.43185958  .00018324  00000-0  11658-2 0  9999,2 53744  53.2188  28.1629 0001470  90.9428 269.1733 15.08859085 93567,6917.822,95.436,540.704,538.67,0.0
53744.0,STARLINK-4670,PAYLOAD,2024-05-09 21:29:34,15.08849492,0.0001344,53.2184,26.0816,98.262,261.8525,0.00061343,9.491e-05,0.0,0 STARLINK-4670,1 53744U 22107AW  24130.89554052  .00009491  00000-0  61343-3 0  9996,2 53744  53.2184  26.0816 0001344  98.2620 261.8525 15.08849492 93630,6917.851,95.437,540.646,538.787,0.0
53744.0,STARLINK-4670,PAYLOAD,2024-05-10 02:15:43,15.08857381,0.0001377,53.2179,25.1869,98.8338,261.281,0.00093838,0.00014685,0.0,0 STARLINK-4670,1 53744U 22107AW  24131.09425852  .00014685  00000-0  93838-3 0  9999,2 53744  53.2179  25.1869 0001377  98.8338 261.2810 15.08857381 92883,6917.827,95.436,540.645,538.74,0.0
53744.0,STARLINK-4670,PAYLOAD,2024-05-10 10:12:39,15.08874526,0.000143,53.2185,23.7018,74.3965,285.7185,0.0014077,0.00022208,0.0,0 STARLINK-4670,1 53744U 22107AW  24131.42545460  .00022208  00000-0  14077-2 0  9991,2 53744  53.2185  23.7018 0001430  74.3965 285.7185 15.08874526 93714,6917.775,95.435,540.629,538.651,0.0
53744.0,STARLINK-4670,PAYLOAD,2024-05-10 21:20:21,15.08858826,0.0001618,53.2173,21.6208,85.9418,274.1759,0.0012129,0.00019078,0.0,0 STARLINK-4670,1 53744U 22107AW  24131.88913750  .00019078  00000-0  12129-2 0  9999,2 53744  53.2173  21.6208 0001618  85.9418 274.1759 15.08858826 93004,6917.823,95.436,540.807,538.569,0.0
53744.0,STARLINK-4670,PAYLOAD,2024-05-11 10:03:24,15.08955008,0.0001276,53.2177,19.2413,84.3607,275.7531,0.0064174,0.00103677,0.0,0 STARLINK-4670,1 53744U 22107AW  24132.41903787  .00103677  00000-0  64174-2 0  9994,2 53744  53.2177  19.2413 0001276  84.3607 275.7531 15.08955008 93085,6917.529,95.43,540.277,538.511,0.0
53744.0,STARLINK-4670,PAYLOAD,2024-05-11 21:11:05,15.08868311,0.0001447,53.2169,17.1603,89.9126,270.2032,0.0003875,5.889e-05,0.0,0 STARLINK-4670,1 53744U 22107AW  24132.88269892  .00005889  00000-0  38750-3 0  9995,2 53744  53.2169  17.1603 0001447  89.9126 270.2032 15.08868311 93155,6917.794,95.436,540.66,538.658,0.0
53744.0,STARLINK-4670,PAYLOAD,2024-05-11 22:46:28,15.08851309,0.0001217,53.2171,16.8579,85.3198,274.7933,0.00043957,6.717e-05,0.0,0 STARLINK-4670,1 53744U 22107AW  24132.94893848  .00006717  00000-0  43957-3 0  9992,2 53744  53.2171  16.8579 0001217  85.3198 274.7933 15.08851309 93945,6917.846,95.437,540.553,538.869,0.0
53744.0,STARLINK-4670,PAYLOAD,2024-05-12 21:01:57,15.08676671,0.000109,53.2179,12.6997,103.9588,256.1525,0.002088,0.0003295,0.0,0 STARLINK-4670,1 53744U 22107AW  24133.87636001  .00032950  00000-0  20880-2 0  9998,2 53744  53.2179  12.6997 0001090 103.9588 256.1525 15.08676671 93308,6918.38,95.448,540.999,539.491,0.0
53744.0,STARLINK-4670,PAYLOAD,2024-05-12 22:37:20,15.08777306,1.99e-05,53.2165,12.4014,87.0649,273.0366,0.0049355,0.00079006,0.0,0 STARLINK-4670,1 53744U 22107AW  24133.94259705  .00079006  00000-0  49355-2 0  9999,2 53744  53.2165  12.4014 0000199  87.0649 273.0366 15.08777306 94095,6918.072,95.442,540.075,539.799,0.0
53744.0,STARLINK-4670,PAYLOAD,2024-05-13 01:48:06,15.08798246,9.05e-05,53.2177,11.8067,140.1431,219.9627,0.0035939,0.00057308,0.0,0 STARLINK-4670,1 53744U 22107AW  24134.07507921  .00057308  00000-0  35939-2 0  9994,2 53744  53.2177  11.8067 0000905 140.1431 219.9627 15.08798246 93335,6918.008,95.44,540.499,539.247,0.0
53744.0,STARLINK-4670,PAYLOAD,2024-05-14 08:00:25,15.08880772,7.14e-05,53.2175,6.1568,136.6387,223.4661,0.0012311,0.00019381,0.0,0 STARLINK-4670,1 53744U 22107AW  24135.33362862  .00019381  00000-0  12311-2 0  9995,2 53744  53.2175   6.1568 0000714 136.6387 223.4661 15.08880772 93529,6917.756,95.435,540.115,539.127,0.0
53744.0,STARLINK-4670,PAYLOAD,2024-05-14 22:18:53,15.08865973,0.0001037,53.218,3.4782,87.2418,272.8693,0.0012214,0.00019218,0.0,0 STARLINK-4670,1 53744U 22107AW  24135.92978424  .00019218  00000-0  12214-2 0  9998,2 53744  53.2180   3.4782 0001037  87.2418 272.8693 15.08865973 94393,6917.801,95.436,540.383,538.949,0.0
53744.0,STARLINK-4670,PAYLOAD,2024-05-15 01:29:39,15.08872118,5.36e-05,53.2174,2.8834,85.7252,274.3802,0.0014413,0.00022745,0.0,0 STARLINK-4670,1 53744U 22107AW  24136.06226133  .00022745  00000-0  14413-2 0  9999,2 53744  53.2174   2.8834 0000536  85.7252 274.3802 15.08872118 93633,6917.782,95.436,540.018,539.276,0.0
53744.0,STARLINK-4670,PAYLOAD,2024-05-15 14:12:44,15.08830129,8.82e-05,53.2177,0.5052,72.1766,287.9322,-0.00094113,-0.0001523,0.0,0 STARLINK-4670,1 53744U 22107AW  24136.59218102 -.00015230  00000-0 -94113-3 0  9993,2 53744  53.2177   0.5052 0000882  72.1766 287.9322 15.08830129 94495,6917.911,95.438,540.386,539.165,0.0
53744.0,STARLINK-4670,PAYLOAD,2024-05-15 20:34:17,15.08839437,6.37e-05,53.2174,359.3173,77.8468,282.2595,-0.00010366,-1.937e-05,0.0,0 STARLINK-4670,1 53744U 22107AW  24136.85714142 -.00001937  00000-0 -10366-3 0  9994,2 53744  53.2174 359.3173 0000637  77.8468 282.2595 15.08839437 93759,6917.882,95.438,540.188,539.306,0.0
53744.0,STARLINK-4670,PAYLOAD,2024-05-15 22:09:40,15.08852617,4.77e-05,53.2175,359.019,59.1304,300.9735,0.00053727,8.276e-05,0.0,0 STARLINK-4670,1 53744U 22107AW  24136.92338058  .00008276  00000-0  53727-3 0  9999,2 53744  53.2175 359.0190 0000477  59.1304 300.9735 15.08852617 94547,6917.842,95.437,540.037,539.377,0.0
53744.0,STARLINK-4670,PAYLOAD,2024-05-15 23:45:03,15.08842754,4.84e-05,53.2173,358.7234,74.9864,285.1182,0.0020174,0.00031967,0.0,0 STARLINK-4670,1 53744U 22107AW  24136.98962299  .00031967  00000-0  20174-2 0  9997,2 53744  53.2173 358.7234 0000484  74.9864 285.1182 15.08842754 93779,6917.872,95.437,540.072,539.402,0.0
53744.0,STARLINK-4670,PAYLOAD,2024-05-16 07:41:58,15.08862094,7.53e-05,53.216,357.2344,27.3825,332.7207,0.0022856,0.00036297,0.0,0 STARLINK-4670,1 53744U 22107AW  24137.32082083  .00036297  00000-0  22856-2 0  9990,2 53744  53.2160 357.2344 0000753  27.3825 332.7207 15.08862094 94608,6917.813,95.436,540.199,539.157,0.0
53744.0,STARLINK-4670,PAYLOAD,2024-05-17 20:15:52,15.08880793,3.28e-05,53.2164,350.3973,331.4226,28.6748,0.0022169,0.0003521,0.0,0 STARLINK-4670,1 53744U 22107AW  24138.84435209  .00035210  00000-0  22169-2 0  9991,2 53744  53.2164 350.3973 0000328 331.4226  28.6748 15.08880793 94052,6917.756,95.435,539.848,539.394,0.0
